BEIJING 1               
1 28890U 05043A   24038.59644045  .00000692  00000+0  14676-3 0  9996
2 28890  98.1813 162.5757 0016248  94.8916 265.4141 14.62127058974818
HJ-1A                   
1 33320U 08041A   24038.57359828  .00002292  00000+0  31385-3 0  9995
2 33320  97.6355  52.0817 0022056  78.5663 281.8025 14.79234585830949
HJ-1B                   
1 33321U 08041B   24038.61325618  .00001625  00000+0  21987-3 0  9997
2 33321  97.6335  56.6373 0039990 121.5233 238.9896 14.79727222830979
YAOGAN 4                
1 33446U 08061A   24038.55957384  .00002639  00000+0  36223-3 0  9996
2 33446  97.8714 333.0605 0015020 355.3678   4.7392 14.79155109818243
DEIMOS-1                
1 35681U 09041A   24038.58035885  .00001122  00000+0  18193-3 0  9996
2 35681  97.6766 227.5362 0002836  88.1201 272.0333 14.72990177780082
UK-DMC 2                
1 35683U 09041C   24038.58076581  .00001609  00000+0  25892-3 0  9990
2 35683  97.7589 191.8069 0001490  96.6014 263.5364 14.72829920779732
RISAT 1                 
1 38248U 12017A   24038.60304748  .00012449  00000+0  57047-3 0  9990
2 38248  97.5327  55.8176 0003276  16.4069 343.7271 15.20608751649715
DMC3-FM1                
1 40715U 15032A   24038.58176732  .00001297  00000+0  16472-3 0  9995
2 40715  97.7703 281.2019 0006117  14.8267 345.3125 14.83309665462211
DMC3-FM2                
1 40716U 15032B   24038.60498928  .00001281  00000+0  16272-3 0  9994
2 40716  97.7754 282.2084 0008104  15.7262 344.4202 14.83311540462215
DMC3-FM3                
1 40717U 15032C   24038.62680074  .00001283  00000+0  16302-3 0  9998
2 40717  97.7800 283.4348 0009472  10.9578 349.1840 14.83303291462225
